{
  "type": "FeatureCollection",
  "features": [
    {
      "type": "Feature",
      "properties": {
        "norad_id": 66801,
        "name": "STARLINK-36080",
        "group": "last-30-days",
        "lat": 36.415578599092036,
        "lon": -40.96323284944751,
        "alt_km": 404.9729728799839,
        "timestamp": "2025-12-22T18:58:52.139053+00:00",
        "meta_object_name": "STARLINK-36080",
        "meta_object_id": "2025-278L",
        "meta_epoch": "2025-12-22T06:00:02.000160",
        "meta_mean_motion": 15.54777291,
        "meta_eccentricity": 0.00015168,
        "meta_inclination": 42.9994,
        "meta_ra_of_asc_node": 194.5554,
        "meta_arg_of_pericenter": 260.8804,
        "meta_mean_anomaly": 69.9759,
        "meta_ephemeris_type": 0,
        "meta_classification_type": "U",
        "meta_norad_cat_id": 66801,
        "meta_element_set_no": 999,
        "meta_rev_at_epoch": 448,
        "meta_bstar": -0.033827422,
        "meta_mean_motion_dot": -0.02059359,
        "meta_mean_motion_ddot": 0,
        "tle_line1": "1 66801U 25278L   25356.25002315 -.02059359  00000+0 -33827-1 0  9992",
        "tle_line2": "2 66801  42.9994 194.5554 0001516 260.8804  69.9759 15.54777291  4483"
      },
      "geometry": {
        "type": "Point",
        "coordinates": [
          -40.96323284944751,
          36.415578599092036
        ]
      }
    },
    {
      "type": "Feature",
      "properties": {
        "norad_id": 66802,
        "name": "STARLINK-35604",
        "group": "last-30-days",
        "lat": 40.43629571229669,
        "lon": -54.72841419781492,
        "alt_km": 404.4915259671652,
        "timestamp": "2025-12-22T18:58:52.139063+00:00",
        "meta_object_name": "STARLINK-35604",
        "meta_object_id": "2025-278M",
        "meta_epoch": "2025-12-22T06:00:02.000160",
        "meta_mean_motion": 15.54776418,
        "meta_eccentricity": 0.00015966,
        "meta_inclination": 42.9995,
        "meta_ra_of_asc_node": 194.5849,
        "meta_arg_of_pericenter": 258.3065,
        "meta_mean_anomaly": 61.0456,
        "meta_ephemeris_type": 0,
        "meta_classification_type": "U",
        "meta_norad_cat_id": 66802,
        "meta_element_set_no": 999,
        "meta_rev_at_epoch": 448,
        "meta_bstar": -0.03378024,
        "meta_mean_motion_dot": -0.02056789,
        "meta_mean_motion_ddot": 0,
        "tle_line1": "1 66802U 25278M   25356.25002315 -.02056789  00000+0 -33780-1 0  9995",
        "tle_line2": "2 66802  42.9995 194.5849 0001596 258.3065  61.0456 15.54776418  4488"
      },
      "geometry": {
        "type": "Point",
        "coordinates": [
          -54.72841419781492,
          40.43629571229669
        ]
      }
    },
    {
      "type": "Feature",
      "properties": {
        "norad_id": 66803,
        "name": "STARLINK-35565",
        "group": "last-30-days",
        "lat": 39.27788023335211,
        "lon": -49.96779768855072,
        "alt_km": 404.63721806336343,
        "timestamp": "2025-12-22T18:58:52.139073+00:00",
        "meta_object_name": "STARLINK-35565",
        "meta_object_id": "2025-278N",
        "meta_epoch": "2025-12-22T06:00:02.000160",
        "meta_mean_motion": 15.54776503,
        "meta_eccentricity": 0.00015216,
        "meta_inclination": 42.9992,
        "meta_ra_of_asc_node": 194.5751,
        "meta_arg_of_pericenter": 262.1422,
        "meta_mean_anomaly": 61.0463,
        "meta_ephemeris_type": 0,
        "meta_classification_type": "U",
        "meta_norad_cat_id": 66803,
        "meta_element_set_no": 999,
        "meta_rev_at_epoch": 457,
        "meta_bstar": -0.033810597,
        "meta_mean_motion_dot": -0.02058395,
        "meta_mean_motion_ddot": 0,
        "tle_line1": "1 66803U 25278N   25356.25002315 -.02058395  00000+0 -33811-1 0  9996",
        "tle_line2": "2 66803  42.9992 194.5751 0001521 262.1422  61.0463 15.54776503  4579"
      },
      "geometry": {
        "type": "Point",
        "coordinates": [
          -49.96779768855072,
          39.27788023335211
        ]
      }
    },
    {
      "type": "Feature",
      "properties": {
        "norad_id": 66804,
        "name": "STARLINK-36038",
        "group": "last-30-days",
        "lat": 38.630116987664394,
        "lon": -47.65708764989729,
        "alt_km": 404.7177991542776,
        "timestamp": "2025-12-22T18:58:52.139084+00:00",
        "meta_object_name": "STARLINK-36038",
        "meta_object_id": "2025-278P",
        "meta_epoch": "2025-12-22T06:00:02.000160",
        "meta_mean_motion": 15.54780081,
        "meta_eccentricity": 0.00016279,
        "meta_inclination": 42.9995,
        "meta_ra_of_asc_node": 194.571,
        "meta_arg_of_pericenter": 257.0614,
        "meta_mean_anomaly": 68.0417,
        "meta_ephemeris_type": 0,
        "meta_classification_type": "U",
        "meta_norad_cat_id": 66804,
        "meta_element_set_no": 999,
        "meta_rev_at_epoch": 448,
        "meta_bstar": -0.033917511,
        "meta_mean_motion_dot": -0.02064512,
        "meta_mean_motion_ddot": 0,
        "tle_line1": "1 66804U 25278P   25356.25002315 -.02064512  00000+0 -33918-1 0  9993",
        "tle_line2": "2 66804  42.9995 194.5710 0001627 257.0614  68.0417 15.54780081  4483"
      },
      "geometry": {
        "type": "Point",
        "coordinates": [
          -47.65708764989729,
          38.630116987664394
        ]
      }
    },
    {
      "type": "Feature",
      "properties": {
        "norad_id": 66805,
        "name": "STARLINK-36049",
        "group": "last-30-days",
        "lat": 37.196308468004815,
        "lon": -43.1526163955893,
        "alt_km": 404.9410996289562,
        "timestamp": "2025-12-22T18:58:52.139096+00:00",
        "meta_object_name": "STARLINK-36049",
        "meta_object_id": "2025-278Q",
        "meta_epoch": "2025-12-22T06:00:02.000160",
        "meta_mean_motion": 15.5477343,
        "meta_eccentricity": 0.00016972,
        "meta_inclination": 42.9994,
        "meta_ra_of_asc_node": 194.5602,
        "meta_arg_of_pericenter": 258.7181,
        "meta_mean_anomaly": 70.2222,
        "meta_ephemeris_type": 0,
        "meta_classification_type": "U",
        "meta_norad_cat_id": 66805,
        "meta_element_set_no": 999,
        "meta_rev_at_epoch": 448,
        "meta_bstar": -0.033757507,
        "meta_mean_motion_dot": -0.02055417,
        "meta_mean_motion_ddot": 0,
        "tle_line1": "1 66805U 25278Q   25356.25002315 -.02055417  00000+0 -33758-1 0  9990",
        "tle_line2": "2 66805  42.9994 194.5602 0001697 258.7181  70.2222 15.54773430  4486"
      },
      "geometry": {
        "type": "Point",
        "coordinates": [
          -43.1526163955893,
          37.196308468004815
        ]
      }
    },
    {
      "type": "Feature",
      "properties": {
        "norad_id": 66806,
        "name": "STARLINK-36069",
        "group": "last-30-days",
        "lat": 37.93345646197111,
        "lon": -45.37871675143589,
        "alt_km": 404.8966780944411,
        "timestamp": "2025-12-22T18:58:52.139108+00:00",
        "meta_object_name": "STARLINK-36069",
        "meta_object_id": "2025-278R",
        "meta_epoch": "2025-12-22T06:00:02.000160",
        "meta_mean_motion": 15.54775659,
        "meta_eccentricity": 0.00016438,
        "meta_inclination": 42.9995,
        "meta_ra_of_asc_node": 194.5654,
        "meta_arg_of_pericenter": 263.2904,
        "meta_mean_anomaly": 63.7325,
        "meta_ephemeris_type": 0,
        "meta_classification_type": "U",
        "meta_norad_cat_id": 66806,
        "meta_element_set_no": 999,
        "meta_rev_at_epoch": 427,
        "meta_bstar": -0.033806843,
        "meta_mean_motion_dot": -0.02058213,
        "meta_mean_motion_ddot": 0,
        "tle_line1": "1 66806U 25278R   25356.25002315 -.02058213  00000+0 -33807-1 0  9993",
        "tle_line2": "2 66806  42.9995 194.5654 0001643 263.2904  63.7325 15.54775659  4273"
      },
      "geometry": {
        "type": "Point",
        "coordinates": [
          -45.37871675143589,
          37.93345646197111
        ]
      }
    },
    {
      "type": "Feature",
      "properties": {
        "norad_id": 66807,
        "name": "STARLINK-36000",
        "group": "last-30-days",
        "lat": 35.59879541909579,
        "lon": -38.82545824210008,
        "alt_km": 405.06008020157606,
        "timestamp": "2025-12-22T18:58:52.139118+00:00",
        "meta_object_name": "STARLINK-36000",
        "meta_object_id": "2025-278S",
        "meta_epoch": "2025-12-22T06:00:02.000160",
        "meta_mean_motion": 15.54778299,
        "meta_eccentricity": 0.00016462,
        "meta_inclination": 42.9995,
        "meta_ra_of_asc_node": 194.5518,
        "meta_arg_of_pericenter": 256.2469,
        "meta_mean_anomaly": 76.5242,
        "meta_ephemeris_type": 0,
        "meta_classification_type": "U",
        "meta_norad_cat_id": 66807,
        "meta_element_set_no": 999,
        "meta_rev_at_epoch": 454,
        "meta_bstar": -0.033837219,
        "meta_mean_motion_dot": -0.02060044,
        "meta_mean_motion_ddot": 0,
        "tle_line1": "1 66807U 25278S   25356.25002315 -.02060044  00000+0 -33837-1 0  9992",
        "tle_line2": "2 66807  42.9995 194.5518 0001646 256.2469  76.5242 15.54778299  4547"
      },
      "geometry": {
        "type": "Point",
        "coordinates": [
          -38.82545824210008,
          35.59879541909579
        ]
      }
    }
  ]
}